[{"OBJECT_NAME":"EOSSAT-1","OBJECT_ID":"2023-001AW","EPOCH":"2026-03-09T17:40:07.010400","MEAN_MOTION":15.32339828,"ECCENTRICITY":0.00112629,"INCLINATION":97.3357,"RA_OF_ASC_NODE":130.2294,"ARG_OF_PERICENTER":110.3168,"MEAN_ANOMALY":249.9285,"EPHEMERIS_TYPE":0,"CLASSIFICATION_TYPE":"U","NORAD_CAT_ID":55053,"ELEMENT_SET_NO":999,"REV_AT_EPOCH":17668,"BSTAR":0.00024844399,"MEAN_MOTION_DOT":7.695e-5,"MEAN_MOTION_DDOT":0},{"OBJECT_NAME":"STARLINK-35488","OBJECT_ID":"2025-245W","EPOCH":"2026-03-09T20:58:48.694080","MEAN_MOTION":15.30195842,"ECCENTRICITY":0.00010091,"INCLINATION":53.1565,"RA_OF_ASC_NODE":283.1162,"ARG_OF_PERICENTER":83.7537,"MEAN_ANOMALY":276.3579,"EPHEMERIS_TYPE":0,"CLASSIFICATION_TYPE":"U","NORAD_CAT_ID":66254,"ELEMENT_SET_NO":999,"REV_AT_EPOCH":2128,"BSTAR":0.00076839006,"MEAN_MOTION_DOT":0.00022464,"MEAN_MOTION_DDOT":0}]
